start=new Date('2023-01-20T00:00:00.000Z').valueOf();
sats=[{"NORAD_CAT_ID":"53197","TLE_LINE1":"1 53197U 22084J   23019.61369485 -.00001373  00000-0 -10227-3 0  9999","GP_ID":"223505087","OBJECT_TYPE":"PAYLOAD","PERIOD":"95.919","ECCENTRICITY":"0.00006090","INCLINATION":"97.6578","REF_FRAME":"TEME","MEAN_MOTION":"15.01270822","REV_AT_EPOCH":"2789","APOAPSIS":"563.401","MEAN_MOTION_DOT":"-0.00001373","ARG_OF_PERICENTER":"141.4547","TIME_SYSTEM":"UTC","OBJECT_ID":"2022-084J","MEAN_ELEMENT_THEORY":"SGP4","FILE":"3755138","TLE_LINE2":"2 53197  97.6578  82.7904 0000609 141.4547 218.6721 15.01270822 27891","CENTER_NAME":"EARTH","SITE":"AFWTR","PERIAPSIS":"562.556","LAUNCH_DATE":"2022-07-22","EPHEMERIS_TYPE":"0","RCS_SIZE":"LARGE","BSTAR":"-0.00010227000000","MEAN_MOTION_DDOT":"0.0000000000000","OBJECT_NAME":"STARLINK-4403","CLASSIFICATION_TYPE":"U","COUNTRY_CODE":"US","MEAN_ANOMALY":"218.6721","EPOCH":"2023-01-19T14:43:43.235040","DECAY_DATE":null,"RA_OF_ASC_NODE":"82.7904","ELEMENT_SET_NO":"999","SEMIMAJOR_AXIS":"6941.113"},{"GP_ID":"223505077","NORAD_CAT_ID":"53198","TLE_LINE1":"1 53198U 22084K   23019.61740365 -.00003989  00000-0 -30618-3 0  9991","PERIOD":"95.920","OBJECT_TYPE":"PAYLOAD","REF_FRAME":"TEME","ECCENTRICITY":"0.00013200","INCLINATION":"97.6593","MEAN_MOTION":"15.01258329","MEAN_MOTION_DOT":"-0.00003989","REV_AT_EPOCH":"2789","APOAPSIS":"563.933","TIME_SYSTEM":"UTC","ARG_OF_PERICENTER":"108.4051","CENTER_NAME":"EARTH","MEAN_ELEMENT_THEORY":"SGP4","OBJECT_ID":"2022-084K","FILE":"3755138","TLE_LINE2":"2 53198  97.6593  82.7965 0001320 108.4051 251.7316 15.01258329 27896","PERIAPSIS":"562.101","LAUNCH_DATE":"2022-07-22","SITE":"AFWTR","MEAN_MOTION_DDOT":"0.0000000000000","BSTAR":"-0.00030618000000","OBJECT_NAME":"STARLINK-4385","EPHEMERIS_TYPE":"0","RCS_SIZE":"LARGE","COUNTRY_CODE":"US","CLASSIFICATION_TYPE":"U","EPOCH":"2023-01-19T14:49:03.675360","MEAN_ANOMALY":"251.7316","ELEMENT_SET_NO":"999","SEMIMAJOR_AXIS":"6941.152","RA_OF_ASC_NODE":"82.7965","DECAY_DATE":null},{"SITE":"AFWTR","LAUNCH_DATE":"2022-07-22","PERIAPSIS":"562.523","FILE":"3755142","TLE_LINE2":"2 53199  97.6594  82.7885 0000687  94.6169 265.5133 15.01263865 27891","OBJECT_ID":"2022-084L","MEAN_ELEMENT_THEORY":"SGP4","CENTER_NAME":"EARTH","EPOCH":"2023-01-19T14:41:03.528096","MEAN_ANOMALY":"265.5133","DECAY_DATE":null,"RA_OF_ASC_NODE":"82.7885","SEMIMAJOR_AXIS":"6941.135","ELEMENT_SET_NO":"999","RCS_SIZE":"LARGE","EPHEMERIS_TYPE":"0","OBJECT_NAME":"STARLINK-4395","MEAN_MOTION_DDOT":"0.0000000000000","BSTAR":"-0.00009350900000","CLASSIFICATION_TYPE":"U","COUNTRY_CODE":"US","INCLINATION":"97.6594","ECCENTRICITY":"0.00006870","REF_FRAME":"TEME","MEAN_MOTION":"15.01263865","TLE_LINE1":"1 53199U 22084L   23019.61184639 -.00001260  00000-0 -93509-4 0  9997","NORAD_CAT_ID":"53199","GP_ID":"223505097","OBJECT_TYPE":"PAYLOAD","PERIOD":"95.919","APOAPSIS":"563.477","REV_AT_EPOCH":"2789","MEAN_MOTION_DOT":"-0.00001260","ARG_OF_PERICENTER":"94.6169","TIME_SYSTEM":"UTC"},{"ARG_OF_PERICENTER":"94.8122","TIME_SYSTEM":"UTC","REV_AT_EPOCH":"2789","APOAPSIS":"563.698","MEAN_MOTION_DOT":"0.00005813","MEAN_MOTION":"15.01258641","ECCENTRICITY":"0.00009830","INCLINATION":"97.6584","REF_FRAME":"TEME","OBJECT_TYPE":"PAYLOAD","PERIOD":"95.920","NORAD_CAT_ID":"53200","TLE_LINE1":"1 53200U 22084M   23019.61555175  .00005813  00000-0  45678-3 0  9996","GP_ID":"223505106","DECAY_DATE":null,"RA_OF_ASC_NODE":"82.7931","SEMIMAJOR_AXIS":"6941.151","ELEMENT_SET_NO":"999","MEAN_ANOMALY":"265.3215","EPOCH":"2023-01-19T14:46:23.671200","CLASSIFICATION_TYPE":"U","COUNTRY_CODE":"US","EPHEMERIS_TYPE":"0","RCS_SIZE":"LARGE","BSTAR":"0.00045678000000","MEAN_MOTION_DDOT":"0.0000000000000","OBJECT_NAME":"STARLINK-4417","SITE":"AFWTR","PERIAPSIS":"562.334","LAUNCH_DATE":"2022-07-22","MEAN_ELEMENT_THEORY":"SGP4","OBJECT_ID":"2022-084M","FILE":"3755139","TLE_LINE2":"2 53200  97.6584  82.7931 0000983  94.8122 265.3215 15.01258641 27890","CENTER_NAME":"EARTH"},{"RCS_SIZE":"LARGE","EPHEMERIS_TYPE":"0","OBJECT_NAME":"STARLINK-4405","MEAN_MOTION_DDOT":"0.0000000000000","BSTAR":"0.00006180200000","CLASSIFICATION_TYPE":"U","COUNTRY_CODE":"US","MEAN_ANOMALY":"243.8553","EPOCH":"2023-01-19T14:35:43.772928","RA_OF_ASC_NODE":"82.7848","DECAY_DATE":null,"SEMIMAJOR_AXIS":"6941.145","ELEMENT_SET_NO":"999","TLE_LINE2":"2 53201  97.6594  82.7848 0000678 116.2741 243.8553 15.01260521 27892","FILE":"3755139","MEAN_ELEMENT_THEORY":"SGP4","OBJECT_ID":"2022-084N","CENTER_NAME":"EARTH","SITE":"AFWTR","LAUNCH_DATE":"2022-07-22","PERIAPSIS":"562.540","REV_AT_EPOCH":"2789","APOAPSIS":"563.481","MEAN_MOTION_DOT":"0.00000735","ARG_OF_PERICENTER":"116.2741","TIME_SYSTEM":"UTC","TLE_LINE1":"1 53201U 22084N   23019.60814552  .00000735  00000-0  61802-4 0  9999","NORAD_CAT_ID":"53201","GP_ID":"223505103","OBJECT_TYPE":"PAYLOAD","PERIOD":"95.919","INCLINATION":"97.6594","ECCENTRICITY":"0.00006780","REF_FRAME":"TEME","MEAN_MOTION":"15.01260521"},{"ARG_OF_PERICENTER":"98.5343","TIME_SYSTEM":"UTC","APOAPSIS":"567.119","REV_AT_EPOCH":"2750","MEAN_MOTION_DOT":"0.00007232","MEAN_MOTION":"15.00472085","ECCENTRICITY":"0.00024160","INCLINATION":"97.6590","REF_FRAME":"TEME","OBJECT_TYPE":"PAYLOAD","PERIOD":"95.970","NORAD_CAT_ID":"53202","TLE_LINE1":"1 53202U 22084P   23019.43144844  .00007232  00000-0  57880-3 0  9990","GP_ID":"223499968","RA_OF_ASC_NODE":"82.8748","DECAY_DATE":null,"SEMIMAJOR_AXIS":"6943.577","ELEMENT_SET_NO":"999","EPOCH":"2023-01-19T10:21:17.145216","MEAN_ANOMALY":"261.6154","CLASSIFICATION_TYPE":"U","COUNTRY_CODE":"US","EPHEMERIS_TYPE":"0","RCS_SIZE":"LARGE","BSTAR":"0.00057880000000","MEAN_MOTION_DDOT":"0.0000000000000","OBJECT_NAME":"STARLINK-4411","SITE":"AFWTR","PERIAPSIS":"563.764","LAUNCH_DATE":"2022-07-22","OBJECT_ID":"2022-084P","MEAN_ELEMENT_THEORY":"SGP4","TLE_LINE2":"2 53202  97.6590  82.8748 0002416  98.5343 261.6154 15.00472085 27503","FILE":"3754973","CENTER_NAME":"EARTH"},{"APOAPSIS":"563.320","REV_AT_EPOCH":"2789","MEAN_MOTION_DOT":"0.00002914","ARG_OF_PERICENTER":"116.7877","TIME_SYSTEM":"UTC","INCLINATION":"97.6587","ECCENTRICITY":"0.00004820","REF_FRAME":"TEME","MEAN_MOTION":"15.01268546","TLE_LINE1":"1 53203U 22084Q   23019.60444026  .00002914  00000-0  23129-3 0  9996","NORAD_CAT_ID":"53203","GP_ID":"223505115","OBJECT_TYPE":"PAYLOAD","PERIOD":"95.919","EPOCH":"2023-01-19T14:30:23.638464","MEAN_ANOMALY":"243.3396","RA_OF_ASC_NODE":"82.7796","DECAY_DATE":null,"SEMIMAJOR_AXIS":"6941.121","ELEMENT_SET_NO":"999","RCS_SIZE":"LARGE","EPHEMERIS_TYPE":"0","OBJECT_NAME":"STARLINK-4409","BSTAR":"0.00023129000000","MEAN_MOTION_DDOT":"0.0000000000000","CLASSIFICATION_TYPE":"U","COUNTRY_CODE":"US","SITE":"AFWTR","LAUNCH_DATE":"2022-07-22","PERIAPSIS":"562.651","TLE_LINE2":"2 53203  97.6587  82.7796 0000482 116.7877 243.3396 15.01268546 27891","FILE":"3755139","MEAN_ELEMENT_THEORY":"SGP4","OBJECT_ID":"2022-084Q","CENTER_NAME":"EARTH"},{"RA_OF_ASC_NODE":"82.7864","DECAY_DATE":null,"ELEMENT_SET_NO":"999","SEMIMAJOR_AXIS":"6941.127","EPOCH":"2023-01-19T14:38:23.532576","MEAN_ANOMALY":"262.4322","CLASSIFICATION_TYPE":"U","COUNTRY_CODE":"US","RCS_SIZE":"LARGE","EPHEMERIS_TYPE":"0","OBJECT_NAME":"STARLINK-4410","MEAN_MOTION_DDOT":"0.0000000000000","BSTAR":"-0.00002386000000","SITE":"AFWTR","LAUNCH_DATE":"2022-07-22","PERIAPSIS":"562.673","FILE":"3755145","TLE_LINE2":"2 53204  97.6594  82.7864 0000460  97.6954 262.4322 15.01266279 27897","OBJECT_ID":"2022-084R","MEAN_ELEMENT_THEORY":"SGP4","CENTER_NAME":"EARTH","ARG_OF_PERICENTER":"97.6954","TIME_SYSTEM":"UTC","APOAPSIS":"563.312","REV_AT_EPOCH":"2789","MEAN_MOTION_DOT":"-0.00000365","MEAN_MOTION":"15.01266279","INCLINATION":"97.6594","ECCENTRICITY":"0.00004600","REF_FRAME":"TEME","OBJECT_TYPE":"PAYLOAD","PERIOD":"95.919","TLE_LINE1":"1 53204U 22084R   23019.60999459 -.00000365  00000-0 -23860-4 0  9995","NORAD_CAT_ID":"53204","GP_ID":"223505156"},{"SITE":"AFWTR","PERIAPSIS":"562.016","LAUNCH_DATE":"2022-07-22","MEAN_ELEMENT_THEORY":"SGP4","OBJECT_ID":"2022-084S","TLE_LINE2":"2 53205  97.6598  82.7738 0001344 351.8471   8.2731 15.01280339 27896","FILE":"3755207","CENTER_NAME":"EARTH","RA_OF_ASC_NODE":"82.7738","DECAY_DATE":null,"ELEMENT_SET_NO":"999","SEMIMAJOR_AXIS":"6941.084","MEAN_ANOMALY":"8.2731","EPOCH":"2023-01-19T14:25:03.526464","CLASSIFICATION_TYPE":"U","COUNTRY_CODE":"US","EPHEMERIS_TYPE":"0","RCS_SIZE":"LARGE","MEAN_MOTION_DDOT":"0.0000000000000","BSTAR":"0.00066135000000","OBJECT_NAME":"STARLINK-4397","MEAN_MOTION":"15.01280339","ECCENTRICITY":"0.00013440","INCLINATION":"97.6598","REF_FRAME":"TEME","OBJECT_TYPE":"PAYLOAD","PERIOD":"95.918","NORAD_CAT_ID":"53205","TLE_LINE1":"1 53205U 22084S   23019.60073526  .00008450  00000-0  66135-3 0  9996","GP_ID":"223506405","ARG_OF_PERICENTER":"351.8471","TIME_SYSTEM":"UTC","REV_AT_EPOCH":"2789","APOAPSIS":"563.882","MEAN_MOTION_DOT":"0.00008450"},{"MEAN_MOTION_DOT":"0.00000250","APOAPSIS":"563.536","REV_AT_EPOCH":"2789","TIME_SYSTEM":"UTC","ARG_OF_PERICENTER":"115.0025","GP_ID":"223505915","NORAD_CAT_ID":"53206","TLE_LINE1":"1 53206U 22084T   23019.60468332  .00000250  00000-0  24051-4 0  9992","PERIOD":"95.919","OBJECT_TYPE":"PAYLOAD","REF_FRAME":"TEME","ECCENTRICITY":"0.00007880","INCLINATION":"97.6580","MEAN_MOTION":"15.01267526","MEAN_MOTION_DDOT":"0.0000000000000","BSTAR":"0.00002405100000","OBJECT_NAME":"STARLINK-4408","EPHEMERIS_TYPE":"0","RCS_SIZE":"LARGE","COUNTRY_CODE":"US","CLASSIFICATION_TYPE":"U","MEAN_ANOMALY":"245.1281","EPOCH":"2023-01-19T14:30:44.638848","SEMIMAJOR_AXIS":"6941.124","ELEMENT_SET_NO":"999","DECAY_DATE":null,"RA_OF_ASC_NODE":"82.7783","CENTER_NAME":"EARTH","OBJECT_ID":"2022-084T","MEAN_ELEMENT_THEORY":"SGP4","FILE":"3755207","TLE_LINE2":"2 53206  97.6580  82.7783 0000788 115.0025 245.1281 15.01267526 27899","PERIAPSIS":"562.442","LAUNCH_DATE":"2022-07-22","SITE":"AFWTR"}];
